[{"OBJECT_NAME":"STARLINK-5884","OBJECT_ID":"2023-037AV","EPOCH":"2026-03-09T21:40:59.689632","MEAN_MOTION":14.98332178,"ECCENTRICITY":0.00026805,"INCLINATION":69.9978,"RA_OF_ASC_NODE":263.9786,"ARG_OF_PERICENTER":272.5548,"MEAN_ANOMALY":87.5304,"EPHEMERIS_TYPE":0,"CLASSIFICATION_TYPE":"U","NORAD_CAT_ID":55957,"ELEMENT_SET_NO":999,"REV_AT_EPOCH":16450,"BSTAR":0.00011589362,"MEAN_MOTION_DOT":1.29e-5,"MEAN_MOTION_DDOT":0},{"OBJECT_NAME":"CZ-4B DEB","OBJECT_ID":"2013-057F","EPOCH":"2026-03-09T03:59:35.491200","MEAN_MOTION":14.62993298,"ECCENTRICITY":0.0160754,"INCLINATION":74.9188,"RA_OF_ASC_NODE":336.3162,"ARG_OF_PERICENTER":85.8895,"MEAN_ANOMALY":276.0632,"EPHEMERIS_TYPE":0,"CLASSIFICATION_TYPE":"U","NORAD_CAT_ID":40533,"ELEMENT_SET_NO":999,"REV_AT_EPOCH":57882,"BSTAR":0.0010233869,"MEAN_MOTION_DOT":6.305e-5,"MEAN_MOTION_DDOT":0}]
